
# Worst residual: 67.71 km
# MJD 60885.000000 (2025 Jul 29  0:00)
ZTs0406 = A11mHzW = A11mRg8
1 79883U 25000ZZK 25210.49919926  .00000000  00000-0  00000-0 0 27115
2 79883 026.8381 023.8402 6348668 059.3427 181.2600 00.90545754    02

# Worst residual: 112.07 km
# MJD 60886.000000 (2025 Jul 30  0:00)
ZTs0406 = A11mHzW = A11mRg8
1 79883U 25000ZZK 25211.49919926  .00000000  00000-0  00000-0 0 27116
2 79883 026.8141 023.7170 6317871 059.8359 147.0894 00.90673776    09

# Worst residual: 108.46 km
# MJD 60887.000000 (2025 Jul 31  0:00)
ZTs0406 = A11mHzW = A11mRg8
1 79883U 25000ZZK 25212.49919926  .00000000  00000-0  00000-0 0 27117
2 79883 026.7949 023.6005 6278012 060.2843 112.8982 00.90776590    03

# Worst residual: 85.67 km
# MJD 60888.000000 (2025 Aug  1  0:00)
ZTs0406 = A11mHzW = A11mRg8
1 79883U 25000ZZK 25213.49919926  .00000000  00000-0  00000-0 0 27118
2 79883 026.7752 023.4761 6231878 060.7674 078.5907 00.90851142    00

# Worst residual: 82.89 km
# MJD 60889.000000 (2025 Aug  2  0:00)
ZTs0406 = A11mHzW = A11mRg8
1 79883U 25000ZZK 25214.49919926  .00000000  00000-0  00000-0 0 27119
2 79883 026.7527 023.3436 6184226 061.3094 044.1510 00.90858466    00

# Worst residual: 118.88 km
# MJD 60890.000000 (2025 Aug  3  0:00)
ZTs0406 = A11mHzW = A11mRg8
1 79883U 25000ZZK 25215.49919926  .00000000  00000-0  00000-0 0 27110
2 79883 026.7279 023.2085 6139305 061.8738 009.6691 00.90769928    01

# Worst residual: 120.30 km
# MJD 60891.000000 (2025 Aug  4  0:00)
ZTs0406 = A11mHzW = A11mRg8
1 79883U 25000ZZK 25216.49919926  .00000000  00000-0  00000-0 0 27111
2 79883 026.7018 023.0773 6095294 062.4031 335.2776 00.90625254    00

# Worst residual: 119.85 km
# MJD 60892.000000 (2025 Aug  5  0:00)
ZTs0406 = A11mHzW = A11mRg8
1 79883U 25000ZZK 25217.49919926  .00000000  00000-0  00000-0 0 27112
2 79883 026.6763 022.9552 6047320 062.8963 300.9953 00.90496164    06

# Worst residual: 59.30 km
# MJD 60893.000000 (2025 Aug  6  0:00)
ZTs0406 = A11mHzW = A11mRg8
1 79883U 25000ZZK 25218.49919926  .00000000  00000-0  00000-0 0 27113
2 79883 026.6549 022.8634 5994617 063.3753 266.7505 00.90414067    04

# Worst residual: 82.72 km
# MJD 60894.000000 (2025 Aug  7  0:00)
ZTs0406 = A11mHzW = A11mRg8
1 79883U 25000ZZK 25219.49919926  .00000000  00000-0  00000-0 0 27114
2 79883 026.6316 022.7281 5942201 063.9478 232.4592 00.90403258    01

# Worst residual: 77.59 km
# MJD 60895.000000 (2025 Aug  8  0:00)
ZTs0406 = A11mHzW = A11mRg8
1 79883U 25000ZZK 25220.49919926  .00000000  00000-0  00000-0 0 27116
2 79883 026.6122 022.6119 5898531 064.5150 198.1624 00.90479413    05

# Worst residual: 102.08 km
# MJD 60896.000000 (2025 Aug  9  0:00)
ZTs0406 = A11mHzW = A11mRg8
1 79883U 25000ZZK 25221.49919926  .00000000  00000-0  00000-0 0 27117
2 79883 026.5966 022.4888 5857681 065.0500 163.8747 00.90599818    04

# Worst residual: 124.58 km
# MJD 60897.000000 (2025 Aug 10  0:00)
ZTs0406 = A11mHzW = A11mRg8
1 79883U 25000ZZK 25222.49919926  .00000000  00000-0  00000-0 0 27118
2 79883 026.5729 022.3553 5815802 065.5080 129.6693 00.90739151    02

# Worst residual: 98.74 km
# MJD 60898.000000 (2025 Aug 11  0:00)
ZTs0406 = A11mHzW = A11mRg8
1 79883U 25000ZZK 25223.49919926  .00000000  00000-0  00000-0 0 27119
2 79883 026.5590 022.2372 5764382 065.9665 095.3882 00.90833569    02

# Worst residual: 64.31 km
# MJD 60899.000000 (2025 Aug 12  0:00)
ZTs0406 = A11mHzW = A11mRg8
1 79883U 25000ZZK 25224.49919926  .00000000  00000-0  00000-0 0 27110
2 79883 026.5436 022.1103 5709241 066.4886 060.9886 00.90869231    03

# Worst residual: 109.63 km
# MJD 60900.000000 (2025 Aug 13  0:00)
ZTs0406 = A11mHzW = A11mRg8
1 79883U 25000ZZK 25225.49919926  .00000000  00000-0  00000-0 0 27111
2 79883 026.5256 021.9780 5656148 067.0586 026.5176 00.90814064    06

# Worst residual: 120.38 km
# MJD 60901.000000 (2025 Aug 14  0:00)
ZTs0406 = A11mHzW = A11mRg8
1 79883U 25000ZZK 25226.49919926  .00000000  00000-0  00000-0 0 27112
2 79883 026.5054 021.8464 5606208 067.6085 352.1106 00.90678830    02

# Worst residual: 120.82 km
# MJD 60902.000000 (2025 Aug 15  0:00)
ZTs0406 = A11mHzW = A11mRg8
1 79883U 25000ZZK 25227.49919926  .00000000  00000-0  00000-0 0 27113
2 79883 026.4875 021.7233 5554724 068.1114 317.8313 00.90543035    05

# Worst residual: 92.83 km
# MJD 60903.000000 (2025 Aug 16  0:00)
ZTs0406 = A11mHzW = A11mRg8
1 79883U 25000ZZK 25228.49919926  .00000000  00000-0  00000-0 0 27114
2 79883 026.4646 021.6083 5497184 068.5836 283.6537 00.90434238    06

# Worst residual: 76.67 km
# MJD 60904.000000 (2025 Aug 17  0:00)
ZTs0406 = A11mHzW = A11mRg8
1 79883U 25000ZZK 25229.49919926  .00000000  00000-0  00000-0 0 27115
2 79883 026.4475 021.5008 5437732 069.1048 249.4420 00.90399307    05

# Worst residual: 93.84 km
# MJD 60905.000000 (2025 Aug 18  0:00)
ZTs0406 = A11mHzW = A11mRg8
1 79883U 25000ZZK 25230.49919926  .00000000  00000-0  00000-0 0 27117
2 79883 026.4315 021.3842 5384265 069.6841 215.1783 00.90444152    01

# Worst residual: 87.99 km
# MJD 60906.000000 (2025 Aug 19  0:00)
ZTs0406 = A11mHzW = A11mRg8
1 79883U 25000ZZK 25231.49919926  .00000000  00000-0  00000-0 0 27118
2 79883 026.4150 021.2611 5336528 070.2527 180.9264 00.90554450    05

# Worst residual: 133.14 km
# MJD 60907.000000 (2025 Aug 20  0:00)
ZTs0406 = A11mHzW = A11mRg8
1 79883U 25000ZZK 25232.49919926  .00000000  00000-0  00000-0 0 27119
2 79883 026.4029 021.1511 5292988 070.7109 146.7441 00.90708039    01

# Worst residual: 121.04 km
# MJD 60908.000000 (2025 Aug 21  0:00)
ZTs0406 = A11mHzW = A11mRg8
1 79883U 25000ZZK 25233.49919926  .00000000  00000-0  00000-0 0 27110
2 79883 026.3930 021.0445 5238497 071.1409 112.5480 00.90820770    00

# Worst residual: 79.17 km
# MJD 60909.000000 (2025 Aug 22  0:00)
ZTs0406 = A11mHzW = A11mRg8
1 79883U 25000ZZK 25234.49919926  .00000000  00000-0  00000-0 0 27111
2 79883 026.3789 020.9317 5177088 071.6240 078.2393 00.90883204    06
